GLOBALSTAR M035 [-]     
1 25851U 99037A   24078.21542258 -.00000052  00000+0  42731-3 0  9996
2 25851  51.9999 351.8148 0013498 325.5513 205.5069 11.04528538 45872
GLOBALSTAR M032 [-]     
1 25852U 99037B   24078.51252145 -.00000042  00000+0  81039-3 0  9996
2 25852  51.9931 207.7906 0010546 119.4290 240.7563 11.19050095 83778
GLOBALSTAR M051 [-]     
1 25853U 99037C   24078.11203042 -.00000077  00000+0 -12450-3 0  9995
2 25853  51.9801  61.1028 0001632 114.0240 246.0741 11.42194589 80276
GLOBALSTAR M030 [-]     
1 25854U 99037D   24077.78432867 -.00000045  00000+0  63003-3 0  9991
2 25854  51.9852 257.0253 0002992 320.6543  39.4056 11.55085674 97303
GLOBALSTAR M048 [-]     
1 25872U 99041A   24078.19146378 -.00000051  00000+0  52806-3 0  9997
2 25872  51.9406 338.3186 0013803 113.4101  56.5436 11.33843961 73254
GLOBALSTAR M026 [-]     
1 25873U 99041B   24078.35620413 -.00000064  00000+0 -11335-5 0  9992
2 25873  51.9987 114.2607 0001411 199.5166 248.7840 11.06834824 98019
GLOBALSTAR M043 [-]     
1 25874U 99041C   24078.30331900 -.00000049  00000+0  55988-3 0  9990
2 25874  51.9397  67.5216 0012755 255.8522 210.1466 11.25675579 71532
GLOBALSTAR M028 [-]     
1 25875U 99041D   24078.26019749 -.00000109  00000+0 -57261-4 0  9995
2 25875  51.9609 112.5217 0063751 161.1477 199.1764 12.50551823133137
